#dP2020  3 17  0  0  0.00000000      96 __u+U ITR00 FIT  IAC
## 2097 172800.00000000   900.00000000 58925 0.0000000000000
+  107   C06C07C08C09C10C11C12C13C14C16C19C20C21C22C23C24C25
+        C26C27C28C29C30C32C33C34C35C36C37E01E02E03E04E05E07
+        E08E09E11E12E13E14E15E18E19E21E24E25E26E27E30E31E33
+        E36G01G02G03G04G05G06G07G08G09G10G11G12G13G14G15G16
+        G17G18G19G20G21G22G23G24G25G26G27G28G29G30G31G32R01
+        R02R03R04R05R07R08R09R11R12R13R14R15R16R17R18R19R20
+        R21R22R23R24R26  0  0  0  0  0  0  0  0  0  0  0  0
++         9  9  9  8  8  8  8  9  8  9  8  8  8  8  8  8  8
++         8  8  8  8  8  8  8  8  8  8  8  4  4  4  4  4  4
++         4  4  5  4  4  4  4  4  5  4  5  4  4  4  4  4  4
++         4  3  3  3  3  3  3  4  4  3  4  3  3  3  4  3  4
++         3  4  3  4  4  4  4  3  3  4  4  3  3  3  3  3  6
++         5  5  6  5  5  5  5  5  5  6  6  5  6  5  5  6  6
++         5  5  5  7  8  0  0  0  0  0  0  0  0  0  0  0  0
%c M  cc GPS ccc cccc cccc cccc cccc ccccc ccccc ccccc ccccc
%c cc cc ccc ccc cccc cccc cccc cccc ccccc ccccc ccccc ccccc
%f  0.0000000  0.000000000  0.00000000000  0.000000000000000
%f  0.0000000  0.000000000  0.00000000000  0.000000000000000
%i    0    0    0    0      0      0      0      0         0
%i    0    0    0    0      0      0      0      0         0
/* INFORMATION & ANALYSIS CENTER (IAC)      ULTRA-RAPID DATA
/* S/V CLOCKS ARE ALIGNED TO GNSS TIME                      
/* G:C1WC2W R:C1PC2P E:C1XC5X C:C2IC6I J:C1CC2S             
/* PCV:IGS14_2091 OL/AL:FES2004  NONE     YN ORB:CoN CLK:CoN
*  2020 03 17 11 30  0.00000000
PC06 -15611.468488  20386.840010 -33124.596062    240.942390
PC07 -22618.692396  34506.203128   7497.576603    934.866572
PC08  -6862.935012  32941.280454  25708.994771   -159.123123
PC09    745.264943  25354.277809 -33381.582173    407.647673
PC10 -10917.158954  35724.669454  19325.004087   -763.661382
PC11   9411.374348 -12098.294660 -23259.530187   -245.678203
PC12  23169.037743   2665.151864 -15302.789770    333.425190
PC13   2383.818220  39925.122912  13838.958618    328.272643
PC14  18809.124765 -18123.605319   9932.333701    208.121398
PC16 -10358.379404  22042.371863 -34363.577674   -722.257695
PC19 -10500.011776  19314.670450 -17151.083284    354.518537
PC20 -23818.892417  14398.251598  -1787.830778   -879.563136
PC21  23430.109306   -724.342973 -15134.405841   -182.413694
PC22   9222.091266  13091.987842 -22846.412771   -869.449438
PC23  -7952.160653 -23620.230095 -12552.666272   -926.036485
PC24  14219.089717 -14453.651831  19151.855524   -898.127064
PC25   3492.040292 -27333.121848   4337.768574   -551.268274
PC26  15784.239685   5345.153581  22380.852720    609.777631
PC27 -24981.319713 -10094.216802   7300.781497    296.716489
PC28 -17153.907833 -19476.585230 -10246.149530    287.673688
PC29      2.918814  17491.067439  21738.712151    202.127454
PC30 -18189.437015   5648.534278  20405.264802    287.996521
PC32 -23420.988589    856.247890  15161.050973   -899.178108
PC33  10454.599897 -19412.455297  17126.053154   -907.755591
PC34  17863.300489  -5996.249147 -20577.177507   -554.728409
PC35  17652.338164  18936.898034  10370.566957   -935.569537
PC36  -4255.743589  27201.266245  -4530.924746   -821.971658
PC37 -15545.589688  -6377.275411 -22264.301583 999999.999999
PE01 -19748.732007  11300.276620 -18941.847579   -816.546242
PE02  19740.245142 -11365.105634  18888.093520    119.982275
PE03  28931.514179  -4729.239610   4145.870277   -277.732446
PE04 -16319.256311  14959.238257 -19643.528426   -486.767736
PE05  24711.725620   8395.578197 -13963.122440   -396.530131
PE07  -6081.873806 -16528.991908  23796.060998   -355.345988
PE08  16036.052169 -15021.528031  19841.951900   6205.545355
PE09   6304.620190  16320.497299 -23872.130251   6122.880907
PE11  10701.963340  26143.946402   8802.841721   1776.657553
PE12  -5928.566230  18006.412252  22734.766115   5900.066972
PE13 -10672.697015 -26090.193632  -9038.143278    399.292548
PE14  27960.864172   4729.901579  -3935.937392   -943.507612
PE15   5594.526421 -18162.726218 -22682.523323    873.695798
PE18 -22890.818402 -14703.034683  -8907.978330  -1041.598928
PE19 -29333.796733   3352.893917  -2140.289519 999999.999999
PE21 -13544.238806  -9507.411199 -24548.565054   -588.400530
PE24   -886.765636  25096.957129  15674.220431   5555.892848
PE25  13468.929562   9637.091421  24534.156139   -506.929122
PE26 -20691.555590 -18562.649542  10186.255665   3409.462196
PE27    652.496580 -25009.856151 -15812.647989    260.474845
PE30  14656.344880 -25595.863901   2369.143190   4060.365507
PE31 -14408.529209  25768.545412  -2170.429619   -472.014737
PE33 -18606.942274   -448.686503  23031.160992   -469.398472
PE36  20672.691186  18718.097717  -9896.756743    584.942979
PG01 -15427.042847  -1198.373949  21424.289080   -328.712499
PG02  13733.389620  21413.508552  -7116.809856   -423.399248
PG03 -21031.681866   9733.514881  12829.939886   -120.209058
PG04 -24675.756543    758.638212  -9825.000853    -63.446087
PG05  11863.771218   9930.897304 -21722.077560     -9.258697
PG06   6513.248679  25633.836350   2236.754241   -232.869950
PG07  -8201.619678  17171.365831 -18032.221238   -237.697743
PG08 -25935.510511  -6220.037628  -1208.109045    -27.390476
PG09 -17657.420339   9160.938662 -17662.756726   -178.356297
PG10   8390.086011 -21872.811824  12372.785366   -280.153351
PG11 -21494.113812  -8660.354386  12219.652194   -331.565927
PG12  21049.257682  -6529.482989  14467.393113    139.744739
PG13  21767.126847  13367.267651  -7556.451134     -5.116536
PG14 -10412.017210 -16621.003877  18332.042426    -25.744566
PG15  26481.837426   3847.226811   -994.597499   -244.381491
PG16 -11187.003620  -9949.170253 -22166.926338   -136.000803
PG17   -382.834302  15216.921654  22193.890414    233.491013
PG18  12148.970696 -10756.857354 -21033.314319    121.479495
PG19   8313.568196  16175.136932  19062.277165   -184.615081
PG20  14676.779955 -21977.895743    838.368223    527.869564
PG21   5517.063895 -19118.626141 -16927.858578    -26.641121
PG22 -19030.546101   1888.551600  18603.355178   -785.452757
PG23 -24711.259575   2197.543879  -9623.730855   -129.083828
PG24  16901.852712   2646.944822  20202.873746    -10.461676
PG25  19970.052575 -16439.359768   5114.917751     -8.584595
PG26  -3072.844987 -17817.480390 -19413.475369    169.270633
PG27 -20744.187119 -12478.625079 -11438.414810   -240.914455
PG28  -8841.956358  21006.556954  14341.691819    732.266628
PG29  19518.003012  -5987.716293 -17034.919129    -58.627348
PG30   -739.138136  24529.762356  -9863.479166   -177.367584
PG31  -7698.481747 -25146.411355   -747.696314    -29.976324
PG32  -1242.550955 -15725.683140  21457.010921    238.244649
PR01  -3788.350350 -10424.916943  22973.423591     58.669415
PR02 -21755.280424    178.023726  13404.680011    417.156147
PR03 -23504.448527   9282.544939  -3610.683621     11.693887
PR04 -11869.917658  12905.232401 -18499.488007     42.305343
PR05   6413.633827   9230.320511 -22884.216202     46.925594
PR07  23247.094044  -9529.404396   4321.059831    -34.433388
PR08  11814.422856 -13003.173182  18541.626236    -51.087752
PR09  11251.351761    985.881931  22883.510602    122.322962
PR11   6179.815949 -24712.403421   1719.102534    -17.007054
PR12  -2405.881653 -20944.885389 -14318.528322    114.710034
PR13 -10127.291198  -4827.872306 -22929.974800    -36.159800
PR14 -11793.619245  13912.428343 -17823.328390     49.219496
PR15  -6640.081979  24497.592877  -2564.292823    106.163945
PR16   3108.894975  20736.896259  14590.190487     -2.147929
PR17 -14058.337075    274.708982  21287.285488    309.730880
PR18   -539.182818  12982.385078  21955.941867     28.795934
PR19  12633.211053  19145.156360  11160.246881    -84.166999
PR20  19662.806344  13892.013259  -8342.044259   -406.777093
PR21  13466.869541   -894.132592 -21644.813905   -111.830575
PR22  -1985.193945 -14624.763441 -20832.375322    -18.185147
PR23 -16756.191873 -18604.947727  -4900.801337    293.127093
PR24 -19853.224750 -12016.954251  10593.849355    -48.180840
PR26  19640.334814  15787.055592  -4020.891613   -403.703438
EOF
